{
  "type": "FeatureCollection",
  "features": [
    {
      "type": "Feature",
      "properties": {
        "norad_id": 60182,
        "name": "ALOS-4 (DAICHI-4)",
        "group": "resource",
        "lat": 30.943576243831068,
        "lon": -88.77423370566638,
        "alt_km": 628.7016885355242,
        "timestamp": "2025-12-17T15:50:09.434830+00:00",
        "meta_object_name": "ALOS-4 (DAICHI-4)",
        "meta_object_id": "2024-123A",
        "meta_epoch": "2025-12-16T22:56:04.911360",
        "meta_mean_motion": 14.79477844,
        "meta_eccentricity": 0.00013999,
        "meta_inclination": 97.9225,
        "meta_ra_of_asc_node": 85.7427,
        "meta_arg_of_pericenter": 99.1223,
        "meta_mean_anomaly": 261.0147,
        "meta_ephemeris_type": 0,
        "meta_classification_type": "U",
        "meta_norad_cat_id": 60182,
        "meta_element_set_no": 999,
        "meta_rev_at_epoch": 7893,
        "meta_bstar": 0.00025137573,
        "meta_mean_motion_dot": 1.827e-05,
        "meta_mean_motion_ddot": 0,
        "tle_line1": "1 60182U 24123A   25350.95561240  .00001827  00000+0  25138-3 0  9995",
        "tle_line2": "2 60182  97.9225  85.7427 0001399  99.1223 261.0147 14.79477844 78937"
      },
      "geometry": {
        "type": "Point",
        "coordinates": [
          -88.77423370566638,
          30.943576243831068
        ]
      }
    },
    {
      "type": "Feature",
      "properties": {
        "norad_id": 60452,
        "name": "LEGION 3",
        "group": "resource",
        "lat": 22.72023018863596,
        "lon": 78.98433413978778,
        "alt_km": 513.0298581089719,
        "timestamp": "2025-12-17T15:50:09.434841+00:00",
        "meta_object_name": "LEGION 3",
        "meta_object_id": "2024-146A",
        "meta_epoch": "2025-12-17T05:42:00.231552",
        "meta_mean_motion": 15.15810518,
        "meta_eccentricity": 0.00153947,
        "meta_inclination": 45.0024,
        "meta_ra_of_asc_node": 286.0198,
        "meta_arg_of_pericenter": 223.0132,
        "meta_mean_anomaly": 136.9544,
        "meta_ephemeris_type": 0,
        "meta_classification_type": "U",
        "meta_norad_cat_id": 60452,
        "meta_element_set_no": 999,
        "meta_rev_at_epoch": 7441,
        "meta_bstar": 0.00023021443,
        "meta_mean_motion_dot": 4.22e-05,
        "meta_mean_motion_ddot": 0,
        "tle_line1": "1 60452U 24146A   25351.23750268  .00004220  00000+0  23021-3 0  9991",
        "tle_line2": "2 60452  45.0024 286.0198 0015394 223.0132 136.9544 15.15810518 74416"
      },
      "geometry": {
        "type": "Point",
        "coordinates": [
          78.98433413978778,
          22.72023018863596
        ]
      }
    },
    {
      "type": "Feature",
      "properties": {
        "norad_id": 60453,
        "name": "LEGION 4",
        "group": "resource",
        "lat": 23.97959796382634,
        "lon": 169.1302302596214,
        "alt_km": 520.8659789396424,
        "timestamp": "2025-12-17T15:50:09.434852+00:00",
        "meta_object_name": "LEGION 4",
        "meta_object_id": "2024-146B",
        "meta_epoch": "2025-12-17T07:17:30.497280",
        "meta_mean_motion": 15.15873516,
        "meta_eccentricity": 0.0009057,
        "meta_inclination": 45.0399,
        "meta_ra_of_asc_node": 17.4295,
        "meta_arg_of_pericenter": 334.7965,
        "meta_mean_anomaly": 25.2471,
        "meta_ephemeris_type": 0,
        "meta_classification_type": "U",
        "meta_norad_cat_id": 60453,
        "meta_element_set_no": 999,
        "meta_rev_at_epoch": 7327,
        "meta_bstar": 0.0002175649,
        "meta_mean_motion_dot": 3.974e-05,
        "meta_mean_motion_ddot": 0,
        "tle_line1": "1 60453U 24146B   25351.30382520  .00003974  00000+0  21756-3 0  9990",
        "tle_line2": "2 60453  45.0399  17.4295 0009057 334.7965  25.2471 15.15873516 73278"
      },
      "geometry": {
        "type": "Point",
        "coordinates": [
          169.1302302596214,
          23.97959796382634
        ]
      }
    },
    {
      "type": "Feature",
      "properties": {
        "norad_id": 60989,
        "name": "SENTINEL-2C",
        "group": "resource",
        "lat": 47.032185569700765,
        "lon": -106.61414323609749,
        "alt_km": 784.1094747482148,
        "timestamp": "2025-12-17T15:50:09.434863+00:00",
        "meta_object_name": "SENTINEL-2C",
        "meta_object_id": "2024-157A",
        "meta_epoch": "2025-12-17T05:09:01.437408",
        "meta_mean_motion": 14.30819349,
        "meta_eccentricity": 0.00012185,
        "meta_inclination": 98.5679,
        "meta_ra_of_asc_node": 63.6327,
        "meta_arg_of_pericenter": 96.8661,
        "meta_mean_anomaly": 263.266,
        "meta_ephemeris_type": 0,
        "meta_classification_type": "U",
        "meta_norad_cat_id": 60989,
        "meta_element_set_no": 999,
        "meta_rev_at_epoch": 6696,
        "meta_bstar": 6.412238e-05,
        "meta_mean_motion_dot": 1.24e-06,
        "meta_mean_motion_ddot": 0,
        "tle_line1": "1 60989U 24157A   25351.21459997  .00000124  00000+0  64122-4 0  9998",
        "tle_line2": "2 60989  98.5679  63.6327 0001218  96.8661 263.2660 14.30819349 66967"
      },
      "geometry": {
        "type": "Point",
        "coordinates": [
          -106.61414323609749,
          47.032185569700765
        ]
      }
    },
    {
      "type": "Feature",
      "properties": {
        "norad_id": 61735,
        "name": "IONOSFERA-M 1",
        "group": "resource",
        "lat": -72.94965521823796,
        "lon": 11.364365873586406,
        "alt_km": 823.719602876613,
        "timestamp": "2025-12-17T15:50:09.434873+00:00",
        "meta_object_name": "IONOSFERA-M 1",
        "meta_object_id": "2024-199A",
        "meta_epoch": "2025-12-17T07:53:17.361888",
        "meta_mean_motion": 14.22715057,
        "meta_eccentricity": 7.403e-05,
        "meta_inclination": 98.7401,
        "meta_ra_of_asc_node": 221.1417,
        "meta_arg_of_pericenter": 14.8346,
        "meta_mean_anomaly": 345.2854,
        "meta_ephemeris_type": 0,
        "meta_classification_type": "U",
        "meta_norad_cat_id": 61735,
        "meta_element_set_no": 999,
        "meta_rev_at_epoch": 10184,
        "meta_bstar": 4.5757203e-05,
        "meta_mean_motion_dot": 5.8e-07,
        "meta_mean_motion_ddot": 0,
        "tle_line1": "1 61735U 24199A   25351.32867317  .00000058  00000+0  45757-4 0  9994",
        "tle_line2": "2 61735  98.7401 221.1417 0000740  14.8346 345.2854 14.22715057101847"
      },
      "geometry": {
        "type": "Point",
        "coordinates": [
          11.364365873586406,
          -72.94965521823796
        ]
      }
    },
    {
      "type": "Feature",
      "properties": {
        "norad_id": 61736,
        "name": "IONOSFERA-M 2",
        "group": "resource",
        "lat": 75.14955082824673,
        "lon": -174.08326285171663,
        "alt_km": 807.8719484435414,
        "timestamp": "2025-12-17T15:50:09.434883+00:00",
        "meta_object_name": "IONOSFERA-M 2",
        "meta_object_id": "2024-199B",
        "meta_epoch": "2025-12-17T07:01:53.940288",
        "meta_mean_motion": 14.22717152,
        "meta_eccentricity": 0.00017482,
        "meta_inclination": 98.7407,
        "meta_ra_of_asc_node": 221.0187,
        "meta_arg_of_pericenter": 104.4167,
        "meta_mean_anomaly": 255.7205,
        "meta_ephemeris_type": 0,
        "meta_classification_type": "U",
        "meta_norad_cat_id": 61736,
        "meta_element_set_no": 999,
        "meta_rev_at_epoch": 10496,
        "meta_bstar": 4.0095643e-05,
        "meta_mean_motion_dot": 4.6e-07,
        "meta_mean_motion_ddot": 0,
        "tle_line1": "1 61736U 24199B   25351.29298542  .00000046  00000+0  40096-4 0  9997",
        "tle_line2": "2 61736  98.7407 221.0187 0001748 104.4167 255.7205 14.22717152104962"
      },
      "geometry": {
        "type": "Point",
        "coordinates": [
          -174.08326285171663,
          75.14955082824673
        ]
      }
    },
    {
      "type": "Feature",
      "properties": {
        "norad_id": 63772,
        "name": "BIOMASS",
        "group": "resource",
        "lat": -17.1789098280345,
        "lon": 179.11145006919926,
        "alt_km": 673.968649243976,
        "timestamp": "2025-12-17T15:50:09.434894+00:00",
        "meta_object_name": "BIOMASS",
        "meta_object_id": "2025-090A",
        "meta_epoch": "2025-12-17T01:11:14.999424",
        "meta_mean_motion": 14.67537273,
        "meta_eccentricity": 0.00011229,
        "meta_inclination": 98.07,
        "meta_ra_of_asc_node": 175.9963,
        "meta_arg_of_pericenter": 81.6302,
        "meta_mean_anomaly": 278.503,
        "meta_ephemeris_type": 0,
        "meta_classification_type": "U",
        "meta_norad_cat_id": 63772,
        "meta_element_set_no": 999,
        "meta_rev_at_epoch": 3397,
        "meta_bstar": 0.00022918499,
        "meta_mean_motion_dot": 1.252e-05,
        "meta_mean_motion_ddot": 0,
        "tle_line1": "1 63772U 25090A   25351.04947916  .00001252  00000+0  22918-3 0  9991",
        "tle_line2": "2 63772  98.0700 175.9963 0001122  81.6302 278.5030 14.67537273 33979"
      },
      "geometry": {
        "type": "Point",
        "coordinates": [
          179.11145006919926,
          -17.1789098280345
        ]
      }
    }
  ]
}